LEMUR-1                 
1 40044U 14033AL  24200.51435937  .00005959  00000+0  79237-3 0  9996
2 40044  97.7015   1.3025 0053795 203.5705 156.3041 14.79071712542331
LEMUR-2-ANUBHAVTHAKUR   
1 41873U 16062E   24200.25078589  .07369084  12451-4  61861-3 0  9999
2 41873  51.6365 257.6226 0006377 326.4935  33.5687 16.38730842427104
LEMUR-2-GREENBERG       
1 42837U 17042N   24200.09984426  .00015730  00000+0  11058-2 0  9990
2 42837  97.3634  27.3594 0013462 287.8255  72.1504 15.05102808382294
LEMUR-2-ANDIS           
1 42838U 17042P   24200.47008531  .00015923  00000+0  11311-2 0  9993
2 42838  97.3627  27.4419 0015644 292.2254  67.7313 15.04682774382345
LEMUR-2-MONSON          
1 42839U 17042Q   24200.50164384  .00012907  00000+0  94171-3 0  9992
2 42839  97.3954  27.5063 0009309 270.6907  89.3253 15.03790005382294
LEMUR-2-FURIAUS         
1 42840U 17042R   24200.46154761  .00013608  00000+0  99032-3 0  9997
2 42840  97.3663  27.4239 0012590 340.4098  19.6643 15.03844310382287
LEMUR-2-PETERG          
1 42841U 17042S   24200.53046014  .00016244  00000+0  11637-2 0  9990
2 42841  97.3933  29.4059 0005066 265.5669  94.4979 15.04450839382374
LEMUR-2-DEMBITZ         
1 42842U 17042T   24200.05725481  .00013942  00000+0  10061-2 0  9992
2 42842  97.3813  28.6642 0009925 297.5398  62.4819 15.04179240382320
LEMUR-2-ZACHARY         
1 42845U 17042W   24200.50429377  .00018171  00000+0  11626-2 0  9997
2 42845  97.3766  29.8544 0007186 336.6824  23.4078 15.08617828382585
LEMUR-2-JIN-LUEN        
1 43182U 18014C   24199.96748803  .00019896  00000+0  11143-2 0  9996
2 43182  97.5847 102.9389 0010438 241.5954 118.4225 15.13411195353407
LEMUR-2-URAMCHANSOL     
1 43183U 18014D   24199.79650833  .00032669  00000+0  16298-2 0  9992
2 43183  97.5857 104.4802 0010077 226.2020 133.8381 15.17404387353480
LEMUR-2-KADI            
1 43184U 18014E   24200.29605809  .00019834  00000+0  10796-2 0  9990
2 43184  97.5646 102.7104 0009653 212.6094 147.4543 15.14436453353477
LEMUR-2-THENICKMOLO     
1 43185U 18014F   24200.15632358  .00025345  00000+0  13093-2 0  9992
2 43185  97.5823 103.8650 0006416 210.1516 149.9348 15.16260243353495
LEMUR-2-CHRISTINAHOLT   
1 43882U 18111G   24199.71860720  .00047648  00000+0  21070-2 0  9993
2 43882  97.6309 112.9544 0006703 193.9640 166.1411 15.21512007304422
LEMUR-2-TINYKEV         
1 43883U 18111H   24199.81876376  .00051278  00000+0  19899-2 0  9999
2 43883  97.6088 113.3719 0006621 190.5172 169.5928 15.25906106304564
LEMUR-2-REMY-COLTON     
1 43884U 18111J   24199.72417054  .00036161  00000+0  16053-2 0  9997
2 43884  97.6260 113.5932 0001949 129.3808 230.7600 15.21465662302491
LEMUR-2-GUSTAVO         
1 43885U 18111K   24199.68973520  .00035217  00000+0  16042-2 0  9997
2 43885  97.6251 112.5608 0010901 210.9828 149.0765 15.20536484304427
LEMUR-2-ZO              
1 43886U 18111L   24199.71206429  .00035987  00000+0  16543-2 0  9999
2 43886  97.6137 111.9832 0009060 229.9192 130.1249 15.20233431304436
LEMUR-2-NATALIEMURRAY   
1 43887U 18111M   24199.70590998  .00037177  00000+0  16731-2 0  9998
2 43887  97.6277 113.6265 0008610 171.9366 188.2009 15.20959668304479
LEMUR-2-SARAHBETTYBOO   
1 43888U 18111N   24200.18361572  .00038606  00000+0  16804-2 0  9997
2 43888  97.6639 117.5357 0007372 263.9422  96.0973 15.22102351304585
LEMUR-2-DAISY-HARPER    
1 43889U 18111P   24199.71122834  .00043039  00000+0  17273-2 0  9997
2 43889  97.6484 117.2082 0005438 261.4374  98.6247 15.24832876304560
LEMUR-2-JPGSQUARED      
1 44855U 19089D   24200.23612240  .00133946  00000+0  21658-2 0  9990
2 44855  36.9626 149.2606 0006183 244.0709 115.9412 15.51462913253754
LEMUR-2-HIMOMANDDAD     
1 44860U 19089J   24200.13141043  .00360439  00000+0  29910-2 0  9991
2 44860  36.9593 139.7109 0013030 237.2688 122.6820 15.68067743253820
LEMUR-2-PAPPY           
1 44861U 19089K   24200.16017402  .00100589  00000+0  21982-2 0  9995
2 44861  36.9553 166.3520 0005888 221.2323 138.7988 15.42928274253506
LEMUR-2-THEODOSIA       
1 44863U 19089M   24200.16220458  .00144513  00000+0  22032-2 0  9996
2 44863  36.9641 146.6703 0005045 261.9873  98.0314 15.53061374253621
LEMUR-2-SLICERS         
1 46500U 20068Q   24200.49065291  .00141304  00000+0  21763-2 0  9998
2 46500  97.7729 172.9323 0007802 142.8262 217.3532 15.53661008209893
LEMUR-2-DAYWZAGOODDAY   
1 46501U 20068R   24199.89458242  .00085057  00000+0  17685-2 0  9992
2 46501  97.7839 171.3739 0007347 151.6026 208.5623 15.45310783209716
LEMUR-2-SUSURRUS        
1 46502U 20068S   24200.16932582  .00139188  00000+0  21515-2 0  9992
2 46502  97.7791 172.7130 0007575 145.0818 215.0933 15.53569802209841
LEMUR-2-NICHOL          
1 46503U 20068T   24199.90052811  .00062971  00000+0  15422-2 0  9995
2 46503  97.7884 169.6148 0006816 163.3629 196.7840 15.40513459209619
LEMUR-2-OZARAK          
1 46908U 20081D   24199.97910767  .00116354  00000+0  26135-2 0  9997
2 46908  36.8948 293.6440 0002625  75.8685 284.2361 15.42055687203643
LEMUR-2-JINDRA          
1 46909U 20081E   24200.22509223  .00232556  00000+0  27107-2 0  9993
2 46909  36.8905 267.3938 0008143 104.4644 255.7020 15.59940202203955
LEMUR-2-WALLACE         
1 46910U 20081F   24200.20603976  .00189955  00000+0  27994-2 0  9991
2 46910  36.8866 275.6625 0005021  89.3300 270.8033 15.53827493203851
LEMUR-2-JEREMIAH        
1 46911U 20081G   24199.53874951  .00116603  00000+0  28082-2 0  9997
2 46911  36.9041 296.9152 0003935  33.7558 326.3445 15.39955170203581
LEMUR-2-AMANDA-SVANTE   
1 48269U 21034B   24200.17942577  .00016546  00000+0  13365-2 0  9990
2 48269  97.6588 265.0728 0003918 107.0258 253.1394 14.99890698175146
LEMUR-2-SPECIAL-K       
1 48273U 21034F   24200.42568002  .00017416  00000+0  13627-2 0  9998
2 48273  97.6533 265.6377 0004049 151.6626 208.4819 15.01100364175218
LEMUR-2-ROHOVITHSA      
1 51036U 22002BE  24200.21919262  .00628841  00000+0  24368-2 0  9994
2 51036  97.3786 278.1625 0009508 238.6406 121.3935 15.85627889139881
LEMUR-2-HANCOM-1        
1 52740U 22057J   24200.31826503  .00932500  41821-3  19122-2 0  9995
2 52740  97.5795 338.7366 0009107 302.0226  58.0166 15.99353708119984
LEMUR-2-PHILARI         
1 55013U 23001E   24200.19417286  .00409676  00000+0  29777-2 0  9991
2 55013  97.4180 268.6462 0002704 230.2925 129.8100 15.72158828 85961
LEMUR-2-DISCLAIMER      
1 55014U 23001F   24200.18520755  .00837943  28336-3  29961-2 0  9990
2 55014  97.4094 270.1321 0008129 256.6939 103.3426 15.88804985 86049
LEMUR-2-STEVEALBERS     
1 55017U 23001J   24199.93521236  .00148277  00000+0  22286-2 0  9990
2 55017  97.4143 266.4255 0003264  86.6876 273.4751 15.54337991 85801
LEMUR-2-MMOLO           
1 55038U 23001AF  24199.75504047  .00108820  00000+0  20423-2 0  9995
2 55038  97.4284 267.3473 0007322  50.7196 309.4703 15.48200813 85800
LEMUR-2-FUENTETAJA-01   
1 55088U 23001CH  24200.47106483  .00600649  00000+0  31050-2 0  9998
2 55088  97.4230 270.4334 0004456 245.2966 114.7837 15.79496966 86062
LEMUR-2-ONREFLECTION    
1 56182U 23054E   24200.25140550  .00089598  00000+0  14524-2 0  9992
2 56182  97.3516  99.5110 0006185  77.3459 282.8485 15.52441686 71046
LEMUR-2-SPACEGUS        
1 56187U 23054K   24200.18591629  .00359785  00000+0  29858-2 0  9990
2 56187  97.3478 100.7278 0007325 111.1373 249.0673 15.69081503 71115
LEMUR-2-EMBRIONOVIS     
1 56970U 23084AQ  24200.32911402  .00010862  00000+0  49680-3 0  9990
2 56970  97.5512 319.3057 0012010 261.3841  98.6033 15.20652997 60859
LEMUR-2-NAZIYAH         
1 56974U 23084AU  24199.90703329  .00073356  00000+0  19542-2 0  9992
2 56974  97.5337 321.9730 0009184 235.1727 124.8654 15.37867549 61036
LEMUR-2-AADAM-ALIYAH    
1 56977U 23084AX  24199.90568686  .00061902  00000+0  16526-2 0  9993
2 56977  97.5360 322.0928 0009448 237.9222 122.1106 15.37851379 61036
LEMUR-2-MANO            
1 57390U 23100E   24199.56724360  .00018236  00000+0  12576-2 0  9990
2 57390  99.4904  50.4806 0013304 190.4425 169.6522 15.05832051 54853
LEMUR-2-DEVERILL-M-T    
1 57391U 23100F   24200.54020797  .00009695  00000+0  68929-3 0  9998
2 57391  99.4691  51.0452 0013170 187.8161 172.2856 15.04896612 55009
LEMUR-2-BASS            
1 58259U 23174D   24200.15466466  .00017843  00000+0  85544-3 0  9993
2 58259  97.4527 273.8446 0012788 135.7694 224.4565 15.18892313 38381
LEMUR-2-DILIGHTFUL      
1 58260U 23174E   24199.75766925  .00043975  00000+0  18267-2 0  9993
2 58260  97.4579 274.4154 0011516 136.9647 223.2493 15.23620400 38370
LEMUR-2-GOOD-VIBES      
1 58263U 23174H   24199.88976834  .00033044  00000+0  13731-2 0  9999
2 58263  97.4520 274.3540 0011023 140.2482 219.9565 15.23680753 38396
LEMUR-2-SANITA-VETRA    
1 58267U 23174M   24200.15107059  .00038554  00000+0  16029-2 0  9995
2 58267  97.4511 274.5784 0010373 134.8272 225.3810 15.23634017 38436
LEMUR-2-MARAPAMASM      
1 58332U 23174CE  24199.75406220  .00041565  00000+0  15087-2 0  9992
2 58332  97.4506 275.3771 0009391 103.5241 256.7045 15.28152909 38455
LEMUR-2-THE-CLEANER     
1 58333U 23174CF  24199.75472764  .00032732  00000+0  13265-2 0  9991
2 58333  97.4518 274.8032 0010090 103.0910 257.1454 15.24535507 38419
LEMUR-2-MANGO2A         
1 58335U 23174CH  24200.15135917  .00073961  00000+0  20662-2 0  9994
2 58335  97.4500 276.8477 0008351 107.4836 252.7321 15.36394671 38589
LEMUR-2-JK0903EM1407    
1 58336U 23174CJ  24200.48330879  .00019146  00000+0  85865-3 0  9997
2 58336  97.4520 274.9056 0010637  99.1570 261.0869 15.21204078 38480
LEMUR-2-MANGO2B         
1 58337U 23174CK  24199.75987269  .00114508  00000+0  31830-2 0  9996
2 58337  97.4549 276.6324 0008991 105.9319 254.2917 15.36368561 38523
LEMUR-2-MJR092620       
1 58340U 23174CN  24199.92457533  .00019405  00000+0  86254-3 0  9996
2 58340  97.4582 274.6284 0011762  98.9606 261.2961 15.21495227 38405
